CUTE-1 (CO-55)          
1 27844U 03031E   23266.55979513  .00000562  00000+0  26965-3 0  9998
2 27844  98.6808 272.3915 0009416 194.1636 165.9280 14.22882618 49753
CUBESAT XI-IV (CO-57)   
1 27848U 03031J   23266.53484811  .00000476  00000+0  23331-3 0  9990
2 27848  98.6843 272.7436 0009008 210.3095 149.7562 14.22379144 49539
CUBESAT XI-V            
1 28895U 05043F   23267.32238593  .00002799  00000+0  51795-3 0  9995
2 28895  98.1666  38.7207 0017245 118.4760 241.8183 14.66059986955564
CUTE-1.7+APD II (CO-65) 
1 32785U 08021C   23267.07347062  .00005424  00000+0  52457-3 0  9995
2 32785  97.7171 231.0184 0013360 128.5749 231.6670 14.93120492835643
AAUSAT-II               
1 32788U 08021F   23266.88807726  .00017070  00000+0  11686-2 0  9992
2 32788  97.5700 244.2986 0008751  33.7531 326.4252 15.06121466838056
DELFI-C3 (DO-64)        
1 32789U 08021G   23267.05842574  .00169398  00000+0  25292-2 0  9992
2 32789  97.2929 288.9124 0008510 120.0948 240.1151 15.54415937842744
SEEDS II (CO-66)        
1 32791U 08021J   23266.84282349  .00009435  00000+0  80216-3 0  9992
2 32791  97.6655 236.1436 0013112  82.1308 278.1402 14.97992094836507
SWISSCUBE               
1 35932U 09051B   23266.54356261  .00001671  00000+0  37429-3 0  9990
2 35932  98.5052 139.1753 0008706  66.1779 294.0330 14.57979912743547
BEESAT-1                
1 35933U 09051C   23267.19904127  .00001444  00000+0  32586-3 0  9990
2 35933  98.4978 141.0706 0006984  75.4581 284.7391 14.57858044743796
ITUPSAT1                
1 35935U 09051E   23266.48022148  .00001319  00000+0  30478-3 0  9996
2 35935  98.5079 140.2442 0009259  81.8489 278.3758 14.56887426743303
TISAT 1                 
1 36799U 10035E   23266.61544631  .00007566  00000+0  65524-3 0  9990
2 36799  98.1217 140.0996 0011671  18.4151 341.7490 14.97387783717155
M-CUBED & EXP-1 PRIME   
1 37855U 11061F   23266.99371265  .00040510  00000+0  10860-2 0  9994
2 37855 101.7104 284.9140 0107194  96.3126 265.0321 15.32178755652131
AEROCUBE 4.5A           
1 38767U 12048K   23266.77385254  .00013356  00000+0  88572-3 0  9996
2 38767  64.6631  88.4907 0110040 120.3644 240.8408 15.02635596220193
AEROCUBE 4.5B           
1 38768U 12048L   23266.51478864  .00021599  00000+0  11686-2 0  9998
2 38768  64.6646  29.6700 0088346 112.0092 249.0444 15.11329809220813
STRAND-1                
1 39090U 13009E   23266.97021663  .00000543  00000+0  20278-3 0  9990
2 39090  98.3866  97.6220 0008484 337.3347  22.7464 14.35695235553914
BRITE-AUSTRIA           
1 39091U 13009F   23267.04742624  .00000357  00000+0  13884-3 0  9995
2 39091  98.3899  96.9385 0010054 343.3101  16.7753 14.35551063553943
BEESAT-3                
1 39135U 13015F   23267.51675444  .00099823  00000+0  14691-2 0  9990
2 39135  64.8552   1.1145 0015785 263.7912  96.1434 15.54758850577746
BEESAT-2                
1 39136U 13015G   23267.43069344  .00077693  00000+0  13793-2 0  9991
2 39136  64.8656  15.1173 0027022 268.3296  91.4751 15.49357947577488
NEE-01 PEGASO           
1 39151U 13018B   23267.30117260  .00003844  00000+0  47456-3 0  9999
2 39151  98.0157  17.7158 0015921 185.3683 174.7363 14.83357116562386
ESTCUBE 1               
1 39161U 13021C   23267.15972915  .00002614  00000+0  39803-3 0  9994
2 39161  97.8636 336.6010 0009435  20.1972 339.9609 14.74735070557758
POPACS 1                
1 39268U 13055D   23266.80665236  .00033651  00000+0  72117-3 0  9995
2 39268  80.9881  93.4651 0484321 220.0628 136.3916 14.72286997522399
POPACS 2                
1 39269U 13055E   23267.14295211  .00024609  00000+0  61342-3 0  9997
2 39269  81.0083 166.8723 0596329  51.0657 314.2145 14.45697568518089
POPACS 3                
1 39270U 13055F   23267.28216537  .00010254  00000+0  29393-3 0  9999
2 39270  81.0118 209.4834 0655311 170.8998 190.4790 14.30254269515428
ZACUBE-1 (TSHEPISOSAT)  
1 39417U 13066B   23267.46140543  .00005839  00000+0  66046-3 0  9996
2 39417  97.6952 225.7472 0052930 322.6450  37.1090 14.85809282531932
WNISAT-1                
1 39423U 13066H   23267.15911730  .00001373  00000+0  27327-3 0  9991
2 39423  97.6910 118.0005 0173250 126.6781 235.0481 14.54391528521822
TRITON-1                
1 39427U 13066M   23267.32585147  .00003178  00000+0  47541-3 0  9998
2 39427  97.8323 189.4786 0105710 219.1847 140.1674 14.71650098527129
DELFI-N3XT              
1 39428U 13066N   23266.39295728  .00006143  00000+0  86551-3 0  9997
2 39428  97.8295 187.7989 0106954 233.1611 125.9753 14.73723664526591
GOMX-1                  
1 39430U 13066Q   23267.42399110  .00003714  00000+0  64134-3 0  9999
2 39430  97.7643 152.7372 0145208  19.8792 340.7988 14.62273991524037
CUBEBUG-2 (LO-74)       
1 39440U 13066AA  23267.43433818  .00005256  00000+0  66601-3 0  9999
2 39440  97.7788 213.0250 0076097  64.7979 296.1099 14.80119341530031
NEE-02 KRYSAOR          
1 39441U 13066AB  23266.80482965  .00003699  00000+0  49421-3 0  9997
2 39441  97.7894 209.0625 0079177  84.2683 276.7549 14.77929015529576
FUNCUBE-1 (AO-73)       
1 39444U 13066AE  23267.43913466  .00007970  00000+0  85950-3 0  9998
2 39444  97.6816 228.3715 0050476 306.7762  52.8827 14.87723528530988
UWE-3                   
1 39446U 13066AG  23267.11415865  .00006038  00000+0  72534-3 0  9993
2 39446  97.7436 218.8226 0065218  17.0821 343.2567 14.82807081529672
BRITE-CA1 (TORONTO)     
1 40020U 14033L   23267.39132527  .00002337  00000+0  39275-3 0  9992
2 40020  97.8402  49.7727 0084089 223.0989 136.3613 14.68250149495816
DUCHIFAT-1              
1 40021U 14033M   23267.43263538  .00010973  00000+0  89462-3 0  9993
2 40021  98.0653 234.7428 0010415 301.7243  58.2964 14.99613459504050
NANOSATC-BR1            
1 40024U 14033Q   23266.87368085  .00010054  00000+0  87126-3 0  9991
2 40024  98.0366 224.6073 0009588 322.3215  37.7334 14.97277960503698
QB50P1                  
1 40025U 14033R   23267.43210329  .00006484  00000+0  59839-3 0  9994
2 40025  98.0043 216.0696 0010207 336.1457  23.9288 14.94958092503478
QB50P2                  
1 40032U 14033Y   23266.80867315  .00007070  00000+0  66660-3 0  9997
2 40032  97.9720 208.7144 0009806 337.1470  22.9312 14.94073401503212
PERSEUS-M2              
1 40037U 14033AD  23266.74846144  .00003214  00000+0  34870-3 0  9996
2 40037  97.9064 192.2274 0013796   3.5066 356.6245 14.88812687502511
PERSEUS-M1              
1 40039U 14033AF  23267.39675351  .00003235  00000+0  35370-3 0  9999
2 40039  97.8908 189.6403 0013616   1.0667 359.0576 14.88493828502486
POLYITAN-1              
1 40042U 14033AJ  23267.43599362  .00009278  00000+0  82802-3 0  9990
2 40042  98.0162 218.2598 0011600 326.2902  33.7580 14.96138189503380
TIGRISAT                
1 40043U 14033AK  23267.45172533  .00003199  00000+0  44828-3 0  9992
2 40043  97.6730  77.5335 0058539  91.3090 269.4828 14.76979990498367
AEROCUBE 6A             
1 40045U 14033AM  23266.92831889  .00006037  00000+0  79089-3 0  9992
2 40045  97.6606  86.9945 0055050  76.7668 283.9678 14.79632313498468
AEROCUBE 6B             
1 40046U 14033AN  23267.45115439  .00006028  00000+0  77606-3 0  9991
2 40046  97.6557  86.0064 0053620  71.7801 288.9238 14.80418167498718
UKUBE-1                 
1 40074U 14037F   23267.25218016  .00006603  00000+0  70300-3 0  9992
2 40074  98.3348 176.9583 0002754 203.2974 156.8117 14.89285184498994
BRITE-PL2 (HEWELIUSZ)   
1 40119U 14049B   23267.24087613  .00003085  00000+0  34938-3 0  9999
2 40119  97.8823   3.5752 0016995 158.5304 201.6628 14.87038718492975
GRIFEX                  
1 40379U 15003D   23267.45329850  .00070490  00000+0  11281-2 0  9992
2 40379  99.0804 228.9038 0062200 287.2249  72.2195 15.50655674478718
CP10 (EXOCUBE)          
1 40380U 15003E   23266.50107215  .00048203  00000+0  11285-2 0  9999
2 40380  99.0854 215.7099 0084805 330.8721  28.7802 15.38215128477814
EXACTVIEW 9             
1 40936U 15052G   23266.51183451  .00003514  00000+0  37783-3 0  9995
2 40936   6.0029 104.5689 0010773 246.0005 113.8995 14.78975152431833
AEROCUBE 5C             
1 40965U 15058B   23266.79129926  .00003687  00000+0  39951-3 0  9990
2 40965  64.7717 100.5886 0167391  35.8345 325.3854 14.80040831217426
AEROCUBE 7              
1 40966U 15058C   23267.47577449  .00004430  00000+0  46666-3 0  9992
2 40966  64.7701  94.1898 0164536  35.2758 325.9105 14.81142165217587
GALASSIA                
1 41170U 15077E   23267.04997950  .00110309  00000+0  16942-2 0  9993
2 41170  14.9857 192.7104 0003821  24.5841 335.4667 15.52385889431535
VELOX-II                
1 41171U 15077F   23266.41369935  .00034635  00000+0  10526-2 0  9999
2 41171  14.9916 316.8766 0006253 150.4779 209.5898 15.31973986430260
HORYU-4                 
1 41340U 16012D   23267.03808507  .00010750  00000+0  64889-3 0  9993
2 41340  31.0033 266.8066 0011415 157.7323 202.3813 15.09421701417661
E-ST@R-II               
1 41459U 16025D   23267.55173492  .00048946  00000+0  11703-2 0  9997
2 41459  98.1741 119.3768 0094316 111.2534 249.8812 15.36737634408124
RAVAN                   
1 41849U 16067B   23267.44332722  .00010189  00000+0  67710-3 0  9995
2 41849  98.0482  66.2057 0015095 210.6716 149.3629 15.07309263375711
CELTEE 1                
1 41850U 16067C   23266.87297495  .00006037  00000+0  45848-3 0  9995
2 41850  98.0767  58.9398 0001834  69.0923 291.0497 15.02578694375233
OPTICUBE 04             
1 41851U 16067D   23267.39009678  .00003677  00000+0  29701-3 0  9995
2 41851  98.0641  57.1737 0016490 223.1246 136.8686 15.00393081375204
AEROCUBE 8D             
1 41852U 16067E   23266.41498863  .00007397  00000+0  55292-3 0  9993
2 41852  98.0821  57.6822 0004116 286.8984  73.1788 15.03096943375118
AEROCUBE 8C             
1 41853U 16067F   23267.41324143  .00007578  00000+0  56731-3 0  9994
2 41853  98.0625  57.9985 0008390 206.8558 153.2232 15.03008136375257
